{
  "type": "FeatureCollection",
  "features": [
    {
      "type": "Feature",
      "properties": {
        "name": "Kingdom of Alba Consolidation",
        "from": "Argyll & Perthshire",
        "to": "Eastern Scotland",
        "period": "843 - 1000 CE",
        "start_year": 843,
        "end_year": 1000,
        "distance_miles": 150,
        "route_type": "kingdom_expansion",
        "color": "#1e3a8a",
        "description": "After Kenneth MacAlpin united the Scots and Picts in 843 CE, the Kingdom of Alba expanded eastward, consolidating Gaelic control over most of Scotland."
      },
      "geometry": {
        "type": "LineString",
        "coordinates": [
          [-5.5, 55.9],
          [-4.0, 56.4],
          [-3.0, 57.0]
        ]
      }
    },
    {
      "type": "Feature",
      "properties": {
        "name": "Norse Viking Raids",
        "from": "Norway/Orkney",
        "to": "Western Scotland",
        "period": "800 - 1263 CE",
        "start_year": 800,
        "end_year": 1263,
        "distance_miles": 400,
        "route_type": "invasion",
        "color": "#dc2626",
        "description": "Norse Vikings raided and settled in western Scotland, Hebrides, and northern isles from 800-1263 CE, influencing local culture before their defeat at the Battle of Largs."
      },
      "geometry": {
        "type": "LineString",
        "coordinates": [
          [10.7, 59.9],
          [5.0, 60.0],
          [-3.0, 59.0],
          [-6.0, 57.5]
        ]
      }
    },
    {
      "type": "Feature",
      "properties": {
        "name": "MacRory/MacRuairidh Clan Territory",
        "from": "Central Highlands",
        "to": "Western Lowlands",
        "period": "1100 - 1400 CE",
        "start_year": 1100,
        "end_year": 1400,
        "distance_miles": 80,
        "route_type": "clan_territory",
        "color": "#059669",
        "description": "The MacRory (Mac Ruairidh) name emerged in western Scotland as surnames became hereditary. Families settled in Ayrshire, Galloway, and surrounding regions."
      },
      "geometry": {
        "type": "LineString",
        "coordinates": [
          [-4.5, 56.5],
          [-4.8, 56.0],
          [-4.5, 55.5],
          [-4.3, 55.0]
        ]
      }
    },
    {
      "type": "Feature",
      "properties": {
        "name": "Wars of Scottish Independence",
        "from": "Central Scotland",
        "to": "English Border",
        "period": "1296 - 1357 CE",
        "start_year": 1296,
        "end_year": 1357,
        "distance_miles": 120,
        "route_type": "military",
        "color": "#b91c1c",
        "description": "The Wars of Scottish Independence (1296-1357) saw William Wallace and Robert the Bruce defend Scotland against English invasion, strengthening Scottish national identity."
      },
      "geometry": {
        "type": "LineString",
        "coordinates": [
          [-3.9, 56.1],
          [-3.5, 55.5],
          [-3.2, 55.0],
          [-2.8, 54.8]
        ]
      }
    },
    {
      "type": "Feature",
      "properties": {
        "name": "Protestant Reformation Spread",
        "from": "St. Andrews & Edinburgh",
        "to": "Western Scotland",
        "period": "1560 - 1600 CE",
        "start_year": 1560,
        "end_year": 1600,
        "distance_miles": 100,
        "route_type": "religious",
        "color": "#7c3aed",
        "description": "The Protestant Reformation reached Scotland in 1560 under John Knox. Presbyterianism spread rapidly through western Scotland, profoundly influencing families like the McCrearys."
      },
      "geometry": {
        "type": "LineString",
        "coordinates": [
          [-2.8, 56.3],
          [-3.2, 55.95],
          [-4.0, 55.8],
          [-4.6, 55.5]
        ]
      }
    },
    {
      "type": "Feature",
      "properties": {
        "name": "Highland-Lowland Cultural Divide",
        "from": "Highland Line",
        "to": "Lowland Scotland",
        "period": "1200 - 1600 CE",
        "start_year": 1200,
        "end_year": 1600,
        "distance_miles": 50,
        "route_type": "cultural_boundary",
        "color": "#f59e0b",
        "description": "The Highland Line marked the cultural divide between Gaelic-speaking Highlanders and Scots/English-speaking Lowlanders. McCreary families emerged in the transitional western Lowlands."
      },
      "geometry": {
        "type": "LineString",
        "coordinates": [
          [-5.0, 56.8],
          [-4.0, 56.5],
          [-3.5, 56.0],
          [-3.0, 55.5]
        ]
      }
    }
  ]
}
